{"ChiCha":[{"title":"CHICHA SAN CHEN 313@somerset","address":"313 Orchard Road, #03-41, 313@somerset, Singapore 238895","openingHours":"11.00am - 9.30pm","phone":"","location":{"type":"Point","coordinates":[103.838246592796,1.30100656917241]},"chain":"ChiCha"},{"title":"CHICHA SAN CHEN JEM","address":"50 Jurong Gateway Road, #01-17, JEM, Singapore 608549","openingHours":"10.00am - 9.00pm","phone":"","location":{"type":"Point","coordinates":[103.743170428258,1.33320021829132]},"chain":"ChiCha"},{"title":"CHICHA SAN CHEN BOON LAY MRT","address":"301 Boon Lay Way , #01-16, Boon Lay MRT, Singapore 649846","openingHours":"11.00am - 10.00pm","phone":"","location":{"type":"Point","coordinates":[103.705845404968,1.33849328515951]},"chain":"ChiCha"},{"title":"CHICHA SAN CHEN ANG MO KIO HUB","address":"53 Ang Mo Kio Ave 3, #B1-65A/65B, Singapore 569933","openingHours":"Sun-Thurs 11.00am - 9.30pm Fri-Sat 11.00am - 10.00pm","phone":"","location":{"type":"Point","coordinates":[103.848467911464,1.36922321403001]},"chain":"ChiCha"},{"title":"CHICHA SAN CHEN CLARKE QUAY CENTRAL","address":"6 Eu Tong Sen Street, #B1-K9, Singapore 059817","openingHours":"Sun-Thurs 11.00am - 9.30pm Fri-Sat 11.00am - 09.45pm","phone":"","location":{"type":"Point","coordinates":[103.846555999235,1.28886291624461]},"chain":"ChiCha"},{"title":"CHICHA SAN CHEN FUSIONOPOLIS","address":"1 Fusionopolis Place, #B1-21, Singapore 138632","openingHours":"10.00am - 7.00pm (Mon - Fri only, Closed on Weekends & Public Holidays)","phone":"","location":{"type":"Point","coordinates":[103.787639846851,1.29951528532019]},"chain":"ChiCha"},{"title":"CHICHA SAN CHEN TAMPINES 1","address":"10 Tampines Central 1, #B1-32, Singapore 529536","openingHours":"11.00am - 10.00pm","phone":"","location":{"type":"Point","coordinates":[103.945131035338,1.35417680835159]},"chain":"ChiCha"},{"title":"CHICHA SAN CHEN PAYA LEBAR QUARTER","address":"10 Paya Lebar Road, #02-27, Singapore 409057","openingHours":"11.00am - 10.00pm","phone":"","location":{"type":"Point","coordinates":[103.892832205276,1.31748231058356]},"chain":"ChiCha"},{"title":"CHICHA SAN CHEN WOODLANDS MRT","address":"Woodlands Drive 50, Avenue 2,#01-33 Singapore 738343","openingHours":"11.00am - 10.00pm","phone":"","location":{"type":"Point","coordinates":[103.785325969402,1.43681436169078]},"chain":"ChiCha"},{"title":"CHICHA SAN CHEN MARINA SQUARE","address":"6 Raffles Boulevard, #02-208,Singapore 039594","openingHours":"11.00 am - 9.00pm","phone":"","location":{"type":"Point","coordinates":[103.857623532359,1.29103980256765]},"chain":"ChiCha"},{"title":"CHICHA SAN CHEN WHEELOCK PLACE","address":"501 Orchard Road, #B1-05,Singapore 238880","openingHours":"11.00am - 9.00pm","phone":"","location":{"type":"Point","coordinates":[103.830714231109,1.3045363597328]},"chain":"ChiCha"},{"title":"CHICHA SAN CHEN NTU","address":"Fine Food @ South Spine Foodcourt, 50 Nanyang Avenue, Singapore 639798","openingHours":"11.00am - 7pm (Mon - Fri only, Closed on Weekends & Public Holidays)","phone":"","location":{"type":"Point","coordinates":[103.680152218583,1.34421841586272]},"chain":"ChiCha"},{"title":"CHICHA SAN CHEN WATERWAY POINT","address":"83 Punggol Central, #01-42 Waterway Point, Singapore 828761","openingHours":"11.00am - 10.00pm","phone":"","location":{"type":"Point","coordinates":[103.902150850842,1.40638890775119]},"chain":"ChiCha"},{"title":"CHICHA SAN CHEN HOUGANG MALL","address":"90 Hougang Ave 10, #01-25 Hougang Mall, Singapore 538766","openingHours":"Sun-Thurs 11.00am - 9.00pm Fri-Sat 11.00am - 9.30pm","phone":"","location":{"type":"Point","coordinates":[103.893723857613,1.37243678271743]},"chain":"ChiCha"},{"title":"CHICHA SAN CHEN STAR VISTA","address":"1 Vista Exchange Green,#02-28 The Star Vista, Singapore 138617","openingHours":"Sun-Thurs 11.00am - 9.00pm Fri-Sat 11.00am - 9.30pm","phone":"","location":{"type":"Point","coordinates":[103.788506619352,1.30688972960252]},"chain":"ChiCha"},{"title":"CHICHA SAN CHEN JEWEL CHANGI AIRPORT","address":"78 Airport Boulevard,#B2-213 Jewel Changi Airport, Singapore 819666","openingHours":"Sun-Thurs 11.00am - 9.30pm Fri-Sat 11.00am - 10.00pm","phone":"","location":{"type":"Point","coordinates":[103.990090538078,1.36015720495893]},"chain":"ChiCha"},{"title":"CHICHA SAN CHEN CHANGE ALLEY","address":"30 Raffles Place , #B1-20/21 Change Alley Mall, Singapore 048622","openingHours":"11.00am - 7.30pm  (Mon - Fri only, Closed on Weekends & Public Holidays)","phone":"","location":{"type":"Point","coordinates":[103.851991124176,1.28414356786844]},"chain":"ChiCha"}],"BlackBall":[{"title":"Tampines – Blackball Express","address":"4 Tampines Centre 5, #04-26 Tampines Mall Singapore 529510","opening_hours":"11am - 9.30pm (DAILY)","chain":"Blackball","location":{"type":"Point","coordinates":[103.944696230083,1.35258025197038]}},{"title":"JEM – BlackBall Express","address":"JEM Jurong East, #B1-32","opening_hours":"(Sun-Mon) 10.30am - 10pm","chain":"Blackball","location":null},{"title":"Nex Serangoon","address":"23 Serangoon Central, #B1-46A, Singapore 556083","opening_hours":"10.30am - 10pm (DAILY)","chain":"Blackball","location":{"type":"Point","coordinates":[103.871861615443,1.3506755212032]}},{"title":"Ang Mo Kio – BlackBall Express","address":"53 Ang Mo Kio Ave 3, #01-17/18 AMK HUB, Singapore 569933","opening_hours":"10am - 10pm (DAILY)","chain":"Blackball","location":{"type":"Point","coordinates":[103.848467911464,1.36922321403001]}},{"title":"Bedok Mall","address":"311 New Upper Changi Road, #01-03, Singapore 467360","opening_hours":"10.30am – 10pm (DAILY)","chain":"Blackball","location":{"type":"Point","coordinates":[103.92940545649,1.32466897396909]}},{"title":"Bugis+","address":"201 Victoria Street, Bugis+ #01-14, Singapore 188067","opening_hours":"11:30am to 11pm (DAILY)","chain":"Blackball","location":{"type":"Point","coordinates":[103.854370864874,1.2995076134825]}}],"Playmade":[{"title":"Ang Mo Kio MRT Station","location":{"type":"Point","coordinates":[103.849746698247,1.36970693964152]},"openingHours":"11am - 10pm (Weekdays), 10.30am - 10pm (Weekends)","phone":"+65 6253 1107","address":"2450 Ang Mo Kio Ave 8, #01-04, Singapore 569811 ","chain":"Playmade"},{"title":"Depot Heights Shopping Centre","location":{"type":"Point","coordinates":[103.810031310636,1.28112226852104]},"openingHours":"11am - 8pm (Weekdays), 10.30am - 8pm (Weekends)","phone":"+65 6253 9252","address":"108 Depot Road, #01-03, Singapore 100108 ","chain":"Playmade"},{"title":"Marina Bay Link Mall (Temporarily Closed)","location":{"type":"Point","coordinates":[103.85347014858,1.28046794331672]},"openingHours":"11am - 6pm (Weekdays), Closed (Weekends),","phone":"+65 8939 3668","address":"8A Marina Boulevard, #B2-43, Singapore 018984 ","chain":"Playmade"},{"title":"Nex Shopping Mall","location":{"type":"Point","coordinates":[103.871861615443,1.3506755212032]},"openingHours":"11am - 10pm (Weekdays), 10.30am - 10pm (Weekends)","phone":"+65 6509 8727","address":"23 Serangoon Central, #04-17, Singapore 556083 ","chain":"Playmade"},{"title":"Northpoint City","location":{"type":"Point","coordinates":[103.836092100712,1.42803585211784]},"openingHours":"11am - 10pm (Weekdays), 10.30am - 10pm (Weekends)","phone":"+65 6970 4739","address":"1 Northpoint Drive, South Wing of Northpoint City, #01-154,  Singapore 768019","chain":"Playmade"},{"title":"PLQ Mall","location":{"type":"Point","coordinates":[103.892832205276,1.31748231058356]},"openingHours":"11am - 10pm (Daily)","phone":"+65 6502 7856","address":"10 Paya Lebar Rd, #B2-K5, Singapore 409057","chain":"Playmade"},{"title":"Tampines1","location":{"type":"Point","coordinates":[103.945131035338,1.35417680835159]},"openingHours":"11am - 10pm (Weekdays), 10.30am - 10pm (Weekends)","phone":"+65 6509 9693","address":"10 Tampines Central 1, #01-59, Singapore 529536","chain":"Playmade"},{"title":"Tiong Bahru Plaza","location":{"type":"Point","coordinates":[103.827158267789,1.28647119992725]},"openingHours":"11am - 10pm (Weekdays), 10.30am - 10pm (Weekends)","phone":"+65 6261 0787","address":"302 Tiong Bahru Rd, #01-154, Singapore 168732 ","chain":"Playmade"},{"title":"Waterway Point Shopping Centre","location":{"type":"Point","coordinates":[103.902150850842,1.40638890775119]},"openingHours":"11am - 10pm (Weekdays), 10.30am - 10pm (Weekends)","phone":"+65 6242 9505","address":"83 Punggol Central, #B1-K6, Singapore 828761","chain":"Playmade"},{"title":"Westgate","location":{"type":"Point","coordinates":[103.742870105512,1.33428313049536]},"openingHours":"11am - 10pm (Weekdays), 10.30am - 10pm (Weekends)","phone":"+65 6970 8939","address":"3 Gateway Dr, #01-K1, Singapore 608532","chain":"Playmade"},{"title":"GrabKitchens","location":null,"openingHours":"","phone":"","address":"Opening hours: 10.30am - 9.30pm (Daily)","chain":"Playmade"},{"title":"Click here for Self-Pickup/ Delivery","location":null,"openingHours":"","phone":"","address":"Opening hours: 10.30am - 9.30pm (Daily)","chain":"Playmade"}],"Koi":[{"title":"One North MRT","address":"5 Ayer Rajah Avenue, #B2-01 Singapore 138647","phone":"One North MRT","opening_hours":"(+65) 6592-0485","chain":"KOI","location":{"type":"Point","coordinates":[103.78745750525,1.29975987493555]}},{"title":"Holland Village MRT","address":"200 Holland Avenue, #B1 – 06 Singapore 278995","phone":"Holland Village MRT","opening_hours":"+(65) 6592-4614","chain":"KOI","location":{"type":"Point","coordinates":[103.796399122951,1.31224029686342]}},{"title":"Bukit Gombak MRT","address":"802 Bukit Batok West Avenue 5, #01-15 Bukit Gombak MRT Station, Singapore 659083","phone":"Bukit Gombak MRT","opening_hours":"+(65) 8943-7972","chain":"KOI","location":{"type":"Point","coordinates":[103.751790910733,1.35861159094192]}},{"title":"NUS Central Square Canteen","address":"31 Lower Kent Ridge Rd,  Level 2, Stall 10","phone":"NUS Central Square Canteen","opening_hours":"+(65) 8943-7536","chain":"KOI","location":null},{"title":"Bugis Downtown Line","address":"191 Rochor Road , #B2-09, DTL Bugis Mrt Station Singapore 188476","phone":"Bugis Downtown Line","opening_hours":"+(65) 8943-7534","chain":"KOI","location":{"type":"Point","coordinates":[103.857125958751,1.29931350399328]}},{"title":"Paya Lebar Quarter","address":"10 Paya Lebar Road #B1-02, Paya Lebar Quarter S(409057)","phone":"Paya Lebar Quarter","opening_hours":"(+65) 6974-3428","chain":"KOI","location":{"type":"Point","coordinates":[103.892832205276,1.31748231058356]}},{"title":"Tanjong Pagar Plaza","address":"Blk 1 Tanjong Pagar Plaza, #01-38 S(082001)","phone":"Tanjong Pagar Plaza","opening_hours":"(+65) 6816-0766","chain":"KOI","location":{"type":"Point","coordinates":[103.84295049169,1.2756261981348]}},{"title":"J Cube","address":"2 Jurong East Central 1, #01-03 JCube, S(609731)","phone":"J Cube","opening_hours":"(+65) 6974-2652","chain":"KOI","location":{"type":"Point","coordinates":[103.740191321438,1.33323785085838]}},{"title":"Downtown East","address":"1 Pasir Ris Close #01-341, Downtown East, S(519599)","phone":"Downtown East","opening_hours":"(+65) 6459-1518","chain":"KOI","location":{"type":"Point","coordinates":[103.955013328302,1.37918445128046]}},{"title":"Great World City","address":"1 Kim Seng Promenade, #01-125 Great World City, S(237994)","phone":"Great World City","opening_hours":"(+65) 6920-2558","chain":"KOI","location":{"type":"Point","coordinates":[103.831928020443,1.2931549290701]}},{"title":"Junction 8","address":"Junction 8 Shopping Centre, 9 Bishan Place, #02-26 S(579837)","phone":"Junction 8","opening_hours":"(+65) 6258-1729","chain":"KOI","location":{"type":"Point","coordinates":[103.848515664081,1.3501820033849]}},{"title":"Plaza Singapura (Basement)","address":"68 Orchard Road #B2-11 Plaza Singapura, S(238839)","phone":"Plaza Singapura (Basement)","opening_hours":"(+65) 6815-1198","chain":"KOI","location":{"type":"Point","coordinates":[103.845067272666,1.30082071769235]}},{"title":"Ang Mo Kio Hub","address":"53 Ang Mo Kio Ave 3 #01-44, S(569933)","phone":"Ang Mo Kio Hub","opening_hours":"(+65) 6815-2976","chain":"KOI","location":{"type":"Point","coordinates":[103.848467911464,1.36922321403001]}},{"title":"Sun Plaza Mall","address":"30 Sembawang Drive #02-09 Sun Plaza S(757713)","phone":"Sun Plaza Mall","opening_hours":"(+65) 6957-6488","chain":"KOI","location":{"type":"Point","coordinates":[103.819462102812,1.44822653818275]}},{"title":"North Point City","address":"1 Northpoint Drive, South Wing of Northpoint City #B2-157 S(768019)","phone":"North Point City","opening_hours":"(+65) 6957-4203","chain":"KOI","location":{"type":"Point","coordinates":[103.836092100712,1.42803585211784]}},{"title":"Tiong Bahru Plaza","address":"302 Tiong Bahru Road #01-155, S(168732)","phone":"Tiong Bahru Plaza","opening_hours":"(+65) 6816-0728","chain":"KOI","location":{"type":"Point","coordinates":[103.827158267789,1.28647119992725]}},{"title":"Takashimaya","address":"391 Orchard Road #B2-37C, Takashimaya Shopping Centre, Ngee Ann City, S (238872)","phone":"Takashimaya","opening_hours":"(+65) 6815-5488","chain":"KOI","location":{"type":"Point","coordinates":[103.834980235031,1.30236932766648]}},{"title":"Jurong East MRT","address":"10 Jurong East Street 12, #01-09, S(609690)","phone":"Jurong East MRT","opening_hours":"(+65) 6931-1044","chain":"KOI","location":{"type":"Point","coordinates":[103.742153884191,1.33329506563598]}},{"title":"Raffles City","address":"252 North Bridge Road #B1-71,Singapore 179103, Raffles City Shopping Centre, S(179103)","phone":"Raffles City","opening_hours":"(+65) 6931-1040","chain":"KOI","location":{"type":"Point","coordinates":[103.853331827088,1.29407644483073]}},{"title":"HarbourFront Centre","address":"1 Maritime Square #01-67A, Harbourfront Centre S(099253)","phone":"HarbourFront Centre","opening_hours":"(+65) 6920-6729","chain":"KOI","location":{"type":"Point","coordinates":[103.820219045593,1.26379682885331]}},{"title":"Tampines Mall","address":"4 Tampines Central 5 #02-K3B, Tampines Mall S(529510)","phone":"Tampines Mall","opening_hours":"(+65) 6443-6502","chain":"KOI","location":{"type":"Point","coordinates":[103.944696230083,1.35258025197038]}},{"title":"Novena Square","address":"238 Thomson Road #01-61, Novena Square S(307683)","phone":"Novena Square","opening_hours":"(+65) 6266-1857","chain":"KOI","location":{"type":"Point","coordinates":[103.843976528625,1.31983049912881]}},{"title":"Choa Chu Kang MRT","address":"10 Choa Chu Kang Avenue 4 #01-04, Choa Chu Kang MRT S(689810)","phone":"Choa Chu Kang MRT","opening_hours":"(+65) 6760-0617","chain":"KOI","location":{"type":"Point","coordinates":[103.74413911363,1.38567272095725]}},{"title":"Hillion Mall","address":"17 Petir Road #B2-53, Hillion Mall S(678278)","phone":"Hillion Mall","opening_hours":"(+65) 6252-1041","chain":"KOI","location":{"type":"Point","coordinates":[103.763022901683,1.37849868060834]}},{"title":"Jurong Point","address":"1 Jurong West Central 2 #02-41C, Jurong Point S(648886)","phone":"Jurong Point","opening_hours":"(+65) 6266-0287","chain":"KOI","location":{"type":"Point","coordinates":[103.706685012926,1.3394520043632]}},{"title":"The Arcade","address":"11 Collyer Quay #01-12, The Arcade S(049317)","phone":"The Arcade","opening_hours":"(+65) 6221-1560","chain":"KOI","location":{"type":"Point","coordinates":[103.852058864769,1.28361982332368]}},{"title":"Woodlands MRT","address":"30 Woodlands Avenue 2 #01-16, Woodlands MRT S(738343)","phone":"Woodlands MRT","opening_hours":"(+65) 6362-1608","chain":"KOI","location":{"type":"Point","coordinates":[103.785325969402,1.43681436169078]}},{"title":"Eastpoint Mall","address":"3 Simei Street 6 #01-08, Eastpoint Mall S(528833)","phone":"Eastpoint Mall","opening_hours":"(+65) 6443-5874","chain":"KOI","location":{"type":"Point","coordinates":[103.953072338954,1.3425864408894]}},{"title":"Chinatown Point","address":"133 New Bridge Road #01-39, Chinatown Point S(059413)","phone":"Chinatown Point","opening_hours":"(+65) 6221-2140","chain":"KOI","location":{"type":"Point","coordinates":[103.845015574621,1.28533894878838]}},{"title":"Waterway Point","address":"83 Punggol Central #B1-K2, Waterway Point S(828761)","phone":"Waterway Point","opening_hours":"(+65) 6385-9396","chain":"KOI","location":{"type":"Point","coordinates":[103.902150850842,1.40638890775119]}},{"title":"White Sands","address":"1 Pasir Ris Central St.3 #01-32, White Sands mall S(518457)","phone":"White Sands","opening_hours":"(+65) 6384-5016","chain":"KOI","location":{"type":"Point","coordinates":[103.949749226457,1.37239898072243]}},{"title":"Tampines MRT","address":"20 Tampines Central 1 #01-08, Tampines MRT S(529538)","phone":"Tampines MRT","opening_hours":"(+65) 6587-4719","chain":"KOI","location":{"type":"Point","coordinates":[103.944958694255,1.35354742601695]}},{"title":"Yew Tee MRT","address":"61 Choa Chu Kang Drive #01-03, Yew Tee MRT S(689715)","phone":"Yew Tee MRT","opening_hours":"(+65) 6765-7184","chain":"KOI","location":{"type":"Point","coordinates":[103.74735767326,1.39729771118639]}},{"title":"Ion Orchard","address":"2 Orchard Turn # B4-35, ION Orchard S(238801)","phone":"Ion Orchard","opening_hours":"(+65) 6509-3084","chain":"KOI","location":{"type":"Point","coordinates":[103.831888294023,1.30404253406976]}},{"title":"CityLink Mall","address":"1 Raffles Link #B1-66, CityLink Mall S(039393)","phone":"CityLink Mall","opening_hours":"(+65) 6327-9095","chain":"KOI","location":{"type":"Point","coordinates":[103.854662968868,1.29237860670957]}},{"title":"Seletar Mall","address":"33 Sengkang West Ave #B1-K6, Seletar Mall S(797653)","phone":"Seletar Mall","opening_hours":"(+65) 6702-4836","chain":"KOI","location":{"type":"Point","coordinates":[103.876085067727,1.39130622992517]}},{"title":"Bukit Batok MRT","address":"10 Bukit Batok Central #01-07, Bukit Batok MRT S(659958)","phone":"Bukit Batok MRT","opening_hours":"(+65) 6563-1496","chain":"KOI","location":{"type":"Point","coordinates":[103.749566478309,1.34903331201636]}},{"title":"Bishan MRT","address":"200 Bishan Road #01-05, Bishan MRT S(579827)","phone":"Bishan MRT","opening_hours":"(+65) 6259-1432","chain":"KOI","location":{"type":"Point","coordinates":[103.848143964542,1.35083898784737]}},{"title":"Ang Mo Kio MRT","address":"2450 Ang Mo Kio Ave8 #01-05, Ang Mo Kio MRT S(569811)","phone":"Ang Mo Kio MRT","opening_hours":"(+65) 6459-3763","chain":"KOI","location":{"type":"Point","coordinates":[103.849746698247,1.36970693964152]}},{"title":"Hougang Mall","address":"90 Hougang Ave 10, #01-15 Singapore S(538766)","phone":"Hougang Mall","opening_hours":"(+65) 6343-4234","chain":"KOI","location":{"type":"Point","coordinates":[103.893723857613,1.37243678271743]}},{"title":"Boon Lay","address":"301 Boon Lay way #01-34, Boon Lay MRT S(649846)","phone":"Boon Lay","opening_hours":"(+65) 6795-6342","chain":"KOI","location":{"type":"Point","coordinates":[103.705845404968,1.33849328515951]}},{"title":"Paya Lebar","address":"30 Paya Lebar Rd. #01-04, Paya Lebar MRT S(409006)","phone":"Paya Lebar","opening_hours":"(+65) 6743-1200","chain":"KOI","location":{"type":"Point","coordinates":[103.893126032803,1.31810656950105]}},{"title":"Changi City Point","address":"5 Changi Business Park Central 1 #B1-18, Changi City Point S(486038)","phone":"Changi City Point","opening_hours":"(+65) 6636-0347","chain":"KOI","location":{"type":"Point","coordinates":[103.962792843921,1.33411313029445]}},{"title":"City Square Mall","address":"180 Kitchener Road #B1-K6, City Square Mall S(208539)","phone":"City Square Mall","opening_hours":"(+65) 6634-9361","chain":"KOI","location":{"type":"Point","coordinates":[103.856780762986,1.31147744952234]}},{"title":"NEX","address":"23 Serangoon Central #B1-07, NEX Mall S(556083)","phone":"NEX","opening_hours":"(+65) 6634-8623","chain":"KOI","location":{"type":"Point","coordinates":[103.871861615443,1.3506755212032]}},{"title":"Changi Airport T3","address":"65 Airport Boulevard #B2-12, Changi Airport Terminal 3 S(819663)","phone":"Changi Airport T3","opening_hours":"(+65) 6543-2080","chain":"KOI","location":{"type":"Point","coordinates":[103.986211815854,1.35640628728788]}},{"title":"Plaza Singapura","address":"68 Orchard Rd #01-68, Plaza Singapura S(238839)","phone":"Plaza Singapura","opening_hours":"(+65) 6238-0365","chain":"KOI","location":{"type":"Point","coordinates":[103.845067272666,1.30082071769235]}},{"title":"313@Somerset","address":"313 Orchard Rd #B3-51, 313@Somerset S(238895)","phone":"313@Somerset","opening_hours":"(+65) 6835-9476","chain":"KOI","location":{"type":"Point","coordinates":[103.838246592796,1.30100656917241]}},{"title":"VivoCity","address":"1 Harbourfront Walk #B2-06B, VivoCity S(098585)","phone":"VivoCity","opening_hours":"(+65) 6272-4085","chain":"KOI","location":{"type":"Point","coordinates":[103.821589247996,1.26389581240004]}},{"title":"Millenia Walk","address":"9 Raffles Boulevard #01-85, Millenia Walk S(039596)","phone":"Millenia Walk","opening_hours":"(+65) 6336-9427","chain":"KOI","location":{"type":"Point","coordinates":[103.859900233499,1.29204605302049]}},{"title":"Buona Vista","address":"100 North Buona Vista Road #1-02/03, Buona Vista MRT S(139345)","phone":"Buona Vista","opening_hours":"(+65) 6779-5643","chain":"KOI","location":{"type":"Point","coordinates":[103.788696211509,1.30768350227128]}},{"title":"Yishun 10","address":"51 Yishun Central 1 #01-02, Yishun 10 Multiplex S(768794)","phone":"Yishun 10","opening_hours":"(+65) 6754-7639","chain":"KOI","location":{"type":"Point","coordinates":[103.836473396124,1.42991554202388]}},{"title":"Westgate Mall","address":"3 Gateway Drive #B1-27, Westgate S(608532)","phone":"Westgate Mall","opening_hours":"(+65) 6569-0271","chain":"KOI","location":{"type":"Point","coordinates":[103.742870105512,1.33428313049536]}},{"title":"Lucky Plaza","address":"304 Orchard Road #01-15, Lucky Plaza S(238863)","phone":"Lucky Plaza","opening_hours":"(+65) 6735-8917","chain":"KOI","location":{"type":"Point","coordinates":[103.834005158524,1.3044637897474]}},{"title":"Compass One","address":"1 Sengkang Square #01-19, Compass One Mall S(545078)","phone":"Compass One","opening_hours":"(+65) 6881-8470","chain":"KOI","location":{"type":"Point","coordinates":[103.894980025383,1.39209415594052]}},{"title":"Bedok Mall","address":"311 New Upper Changi Road #01-97, Bedok Mall S(467360)","phone":"Bedok Mall","opening_hours":"(+65) 6246-1780","chain":"KOI","location":{"type":"Point","coordinates":[103.92940545649,1.32466897396909]}},{"title":"Tampines","address":"BLK 510 Tampines Center 1 #01-250 S(520510)","phone":"Tampines","opening_hours":"(+65) 6789-9106","chain":"KOI","location":{"type":"Point","coordinates":[103.944458085324,1.35480107982353]}},{"title":"Clementi","address":"BLK 443 Clementi Ave 3 #01-67 S(120443)","phone":"Clementi","opening_hours":"(+65) 6773-1476","chain":"KOI","location":{"type":"Point","coordinates":[103.764010395621,1.31421051581741]}},{"title":"Bugis+","address":"201 Victoria Street #01-01 Bugis+ S(188067)","phone":"Bugis+","opening_hours":"(+65) 6884-6817","chain":"KOI","location":{"type":"Point","coordinates":[103.854370864874,1.2995076134825]}},{"title":"Marine Parade","address":"83 Marine Parade Central #01-590 S(440083)","phone":"Marine Parade","opening_hours":"(+65) 6440-4869","chain":"KOI","location":{"type":"Point","coordinates":[103.90607458727,1.30255976796098]}},{"title":"Toa Payoh","address":"BLK 490 Lorong 6 Toa Payoh #01-23 S(310490)","phone":"Toa Payoh","opening_hours":"(+65) 6256-1169","chain":"KOI","location":{"type":"Point","coordinates":[103.848052603546,1.33257175110754]}}],"LiHO":[{"title":"LiHO @ City Square Mall","address":"City Square Mall\n                                             \n                                                                                        #B2-K3/K4,  180 Kitchener Road, 208539","phone":"Tel : 6509 3803","chain":"LiHO","location":{"type":"Point","coordinates":[103.856780762986,1.31147744952234]}},{"title":"LiHO @ Tanjong Pagar MRT Xchange","address":"Tanjong Pagar MRT Station (EW15)\n                                             \n                                                                                        #B1-08,  120 Maxwell Road, 069119","phone":"Tel : 6221 4338","chain":"LiHO","location":{"type":"Point","coordinates":[103.845421805981,1.27651601819819]}},{"title":"LiHO @ 100 AM","address":"100 AM\n                                             \n                                                                                        #02-25,  100 Tras Street, 079027","phone":"Tel : 6694 8932","chain":"LiHO","location":{"type":"Point","coordinates":[103.84347073661,1.27458821795426]}},{"title":"LiHO @ Alexandra Retail Centre","address":"Alexandra Retail Centre (ARC)\n                                             \n                                                                                        #01-10,  460 Alexandra Road, 119963","phone":"Tel : 6272 0211","chain":"LiHO","location":{"type":"Point","coordinates":[103.801277776077,1.27369890868001]}},{"title":"LiHO @ west Coast Plaza","address":"West Coast Plaza\n                                             \n                                                                                        #B1-57,  154 West Coast Road, 127371","phone":"Tel : 6776 0073","chain":"LiHO","location":{"type":"Point","coordinates":[103.766092882107,1.30374258287197]}},{"title":"LiHO @ Anchorpoint","address":"Anchorpoint Shopping Centre\n                                             \n                                                                                        #%u200EB1%u202C-47,  370 Alexandra Road, 159953","phone":"Tel : 6474 1927","chain":"LiHO","location":{"type":"Point","coordinates":[103.805330963707,1.28901158945676]}},{"title":"LiHO @ Raffles City Shopping Centre","address":"Raffles City Shopping Centre (Raffles City)\n                                             \n                                                                                        #B1-71,  252 North Bridge Road, 179103","phone":"Tel : 6336 9282","chain":"LiHO","location":{"type":"Point","coordinates":[103.853331827088,1.29407644483073]}},{"title":"LiHO @ Burlington","address":"Burlington Square\n                                             \n                                                                                         #01-53,  175 Bencoolen Street, 189649","phone":"Tel : 6884 8933","chain":"LiHO","location":{"type":"Point","coordinates":[103.852604729752,1.3021280372895]}},{"title":"LiHO @ Far East Plaza","address":"Far East Plaza Residence\n                                             \n                                                                                        #01-16F,  14 Scotts Road, 228213","phone":"Tel : 6334 5465","chain":"LiHO","location":{"type":"Point","coordinates":[103.833664932875,1.30724675116163]}},{"title":"LiHO @ Great World City","address":"Great World City\n                                             \n                                                                                        #B1-K1,  1 Kim Seng Promenade, 237994","phone":"Tel : 6836 6061","chain":"LiHO","location":{"type":"Point","coordinates":[103.831928020443,1.2931549290701]}},{"title":"LiHO @ Plaza Singapura","address":"Plaza Singapura\n                                             \n                                                                                        #B1-K7,  68 Orchard Road, 238839","phone":"Tel : 6238 8289","chain":"LiHO","location":{"type":"Point","coordinates":[103.845067272666,1.30082071769235]}},{"title":"LiHO @ Orchard Gateway","address":"Orchard Gateway\n                                             \n                                                                                        #B2-13,  277 Orchard Road, 238858","phone":"Tel : 6702 6892","chain":"LiHO","location":{"type":"Point","coordinates":[103.83972034182,1.30040317266733]}},{"title":"LiHO @ Wisma Atria","address":"Wisma Atria\n                                             \n                                                                                        #B1-03,  435 Orchard Road, 238877","phone":null,"chain":"LiHO","location":{"type":"Point","coordinates":[103.833200970183,1.30370452023703]}},{"title":"LiHO @ United Square","address":"United Square\n                                             \n                                                                                        #B1-40,  101 Thomson Road, 307591","phone":"Tel : 6254 0811","chain":"LiHO","location":{"type":"Point","coordinates":[103.843773665257,1.31717838140911]}},{"title":"LiHO @ Toa Payoh","address":"HDB Toa Payoh Central\n                                             \n                                                                                        #01-530,  184 Toa Payoh Central, 310184","phone":"Tel : 6324 7134","chain":"LiHO","location":{"type":"Point","coordinates":[103.849677717253,1.33259000918315]}},{"title":"LiHO @ Eunos MRT","address":"Eunos MRT Station (EW7)\n                                             \n                                                                                        #01-05,  30 Eunos Crescent, 409423","phone":"Tel : 6748 9383","chain":"LiHO","location":{"type":"Point","coordinates":[103.903645566693,1.31965992885645]}},{"title":"LiHO @ 112 Katong","address":"112 Katong\n                                             \n                                                                                        #B1-02A,  112 East Coast Road, 428802","phone":"Tel : 6636 3948","chain":"LiHO","location":{"type":"Point","coordinates":[103.905098915055,1.30508681845447]}},{"title":"LiHO @ Eastpoint Mall","address":"Eastpoint Mall (East Point)\n                                             \n                                                                                        #01-K1,  3 Simei Street 6, 528833","phone":"Tel : 6636 0893","chain":"LiHO","location":{"type":"Point","coordinates":[103.953072338954,1.3425864408894]}},{"title":"LiHO @ Tampires Mall","address":"Tampines Mall\n                                             \n                                                                                        #B1-K5,  4 Tampines Central 5, 529510","phone":"Tel : 6783 9378","chain":"LiHO","location":{"type":"Point","coordinates":[103.944696230083,1.35258025197038]}},{"title":"LiHO @ Tampines MRT","address":"Tampines MRT Station (EW2)\n                                             \n                                                                                        #01-24,  20 Tampines Central 1, 529538","phone":"Tel : 6786 1773","chain":"LiHO","location":{"type":"Point","coordinates":[103.944958694255,1.35354742601695]}},{"title":"LiHO @ Hougang 1","address":"Hougang 1\n                                             \n                                                                                        #01-37,  1 Hougang Street 91, 538692","phone":"Tel : 6387 8995","chain":"LiHO","location":{"type":"Point","coordinates":[103.87945025083,1.37566728348409]}},{"title":"LiHO @ Rivervale Mall","address":"Rivervale Mall\n                                             \n                                                                                        #01-04A,  11 Rivervale Crescent, 545082","phone":null,"chain":"LiHO","location":{"type":"Point","coordinates":[103.904483668323,1.39250410994833]}},{"title":"LiHO @ Jubilee Square","address":"Jubilee Square\n                                             \n                                                                                        #01-14 ,  61 Ang Mo Kio Avenue 8, 569814","phone":"Tel : 6456 6476","chain":"LiHO","location":{"type":"Point","coordinates":[103.847775723803,1.37178551879642]}},{"title":"LiHO @ Thomson Plaza","address":"Thomson Plaza\n                                             \n                                                                                        #01-104,  301 Upper Thomson Road, 574408","phone":"Tel : 6457 7009","chain":"LiHO","location":{"type":"Point","coordinates":[103.830944960934,1.35465019298911]}},{"title":"LiHO @ Junction 8","address":"Junction 8 Shopping Centre\n                                             \n                                                                                        #02-18A,  9 Bishan Place, 579837","phone":"Tel : 6259 9938","chain":"LiHO","location":{"type":"Point","coordinates":[103.848515664081,1.3501820033849]}},{"title":"LiHO @ Clementi","address":"Clementi Arcade\n                                             \n                                                                                         #01-87,  41 Sunset Way, 597071","phone":"Tel : 6778 1323","chain":"LiHO","location":{"type":"Point","coordinates":[103.767515486819,1.3235528694581]}},{"title":"LiHO @ IMM","address":"IMM Building\n                                             \n                                                                                        #01-K12,  2 Jurong East Street 21, 609601","phone":"Tel : 6897 2383","chain":"LiHO","location":{"type":"Point","coordinates":[103.74695659203,1.3346666186285]}},{"title":"LiHO @ NTUC @ Jurong Point 1","address":"Jurong Point\n                                             \n                                                                                        #B1-09,  1 Jurong West Central 2, 648886","phone":null,"chain":"LiHO","location":{"type":"Point","coordinates":[103.706685012926,1.3394520043632]}},{"title":"LiHO @ West Mall","address":"West Mall\n                                             \n                                                                                        #B1-04/04A,  1 Bukit Batok Central Link, 658713","phone":"Tel : 6862 5895","chain":"LiHO","location":{"type":"Point","coordinates":[103.749021976618,1.35018916560505]}},{"title":"LiHO @ Bukit Batok","address":"Bukit Batok MRT Station (NS2)\n                                             \n                                                                                         #01-07,  10 Bukit Batok Central, 659958","phone":"Tel : 6561 5766","chain":"LiHO","location":{"type":"Point","coordinates":[103.749566478309,1.34903331201636]}},{"title":"LiHO @ Bukit Panjang Plaza","address":"Bukit Panjang Plaza (BPP)\n                                             \n                                                                                        #01-21,  1 Jelebu Road, 677743","phone":"Tel : 6763 1470","chain":"LiHO","location":{"type":"Point","coordinates":[103.764317068535,1.37991650665222]}},{"title":"LiHO @ Junction 10","address":"Junction 10\n                                             \n                                                                                        #01-26,  1 Woodlands Road, 677899","phone":"Tel : 6465 2130","chain":"LiHO","location":{"type":"Point","coordinates":[103.760041583169,1.38060512473524]}},{"title":"LiHO @ Lot One Shoppers' Mall","address":"Lot One Shoppers' Mall\n                                             \n                                                                                        #B1-K30,  21 Choa Chu Kang Avenue 4, 689812","phone":"Tel : 6464 8896","chain":"LiHO","location":{"type":"Point","coordinates":[103.744950378814,1.38506836476439]}},{"title":"LiHO @ Woodlands MRT Xchange","address":"Woodlands MRT Station (NS9)\n                                             \n                                                                                        #01-16,  30 Woodlands Avenue 2, 738343","phone":"Tel : 6367 7828","chain":"LiHO","location":{"type":"Point","coordinates":[103.785325969402,1.43681436169078]}},{"title":"LiHO @ Hougang Mall","address":"Hougang Mall\n                                             \n                                                                                        #02-24,  90 Hougang Avenue 10, 538766","phone":"Tel : 6343 4226","chain":"LiHO","location":{"type":"Point","coordinates":[103.893723857613,1.37243678271743]}},{"title":"LiHO @ The Cathay","address":"The Cathay\n                                             \n                                                                                        #01-10,  2 Handy Road, 229233","phone":"Tel : 6235 0029","chain":"LiHO","location":{"type":"Point","coordinates":[103.847832003713,1.29920226381603]}},{"title":"LiHO @ JCube","address":"JCube\n                                             \n                                                                                        #02-77,  2 Jurong East Central 1, 609731","phone":"Tel : 6734 8117","chain":"LiHO","location":{"type":"Point","coordinates":[103.740191321438,1.33323785085838]}},{"title":"LiHO @ VivoCity","address":"VivoCity\n                                             \n                                                                                        #01-111,  1 Harbourfront Walk, 098585","phone":"Tel : 6376 9363","chain":"LiHO","location":{"type":"Point","coordinates":[103.821589247996,1.26389581240004]}},{"title":"LiHO @ Square 2","address":"Square 2\n                                             \n                                                                                        #01-172,  10 Sinaran Drive, 307506","phone":"Tel : 6397 6816","chain":"LiHO","location":{"type":"Point","coordinates":[103.844331494859,1.32061258625866]}},{"title":"LiHO @ The Central","address":"The Central\n                                             \n                                                                                        #B1-25,  6 Eu Tong Sen Street, 059817","phone":"Tel : 6222 2627","chain":"LiHO","location":{"type":"Point","coordinates":[103.846555999235,1.28886291624461]}},{"title":"LiHO @ Ang Mo Kio Hub","address":"Ang Mo Kio Hub\n                                             \n                                                                                        #02-66,  53 Ang Mo Kio Avenue 3, 569933","phone":"Tel : 6481 8103","chain":"LiHO","location":{"type":"Point","coordinates":[103.848467911464,1.36922321403001]}},{"title":"LiHO @ Bedok Point","address":"Bedok Point\n                                             \n                                                                                        #02-30,  799 New Upper Changi Road, 467351","phone":null,"chain":"LiHO","location":{"type":"Point","coordinates":[103.932384005117,1.32480102552267]}},{"title":"LiHO @ Yew Tee Point","address":"Yew Tee Point\n                                             \n                                                                                        #01-49/50,  21 Choa Chu Kang North 6, 689578","phone":"Tel : 6763 0064","chain":"LiHO","location":{"type":"Point","coordinates":[103.746558067665,1.39730190912669]}},{"title":"LiHO @ Orchard Central","address":"Orchard Central\n                                             \n                                                                                         #B1-02,  181 Orchard Road, 238896","phone":"Tel : 6238 7368","chain":"LiHO","location":{"type":"Point","coordinates":[103.839692368177,1.30072350356704]}},{"title":"LiHO @ Bukit Merah","address":"163 Bukit Merah Central Food Centre\n                                             \n                                                                                        #01-3661,  163 Bukit Merah Central, 150163","phone":"Tel : 6278 8913","chain":"LiHO","location":{"type":"Point","coordinates":[103.816939544137,1.28388120820457]}},{"title":"LiHO @ Gek Poh Shopping Centre","address":"Gek Poh Shopping Centre\n                                             \n                                                                                        #01-328,  762 Jurong West Street 75, 640762","phone":"Tel : 6790 9189","chain":"LiHO","location":{"type":"Point","coordinates":[103.69773963001,1.34874164662883]}},{"title":"LiHO @ China Square Central","address":"China Square Central\n                                             \n                                                                                        #01-56,  18 Cross Street, 048423","phone":"Tel : 6438 7121","chain":"LiHO","location":{"type":"Point","coordinates":[103.846878905539,1.28351521684051]}},{"title":"LiHO @ Marina Bay Sands","address":"The Shoppes at Marina Bay Sands\n                                             \n                                                                                        #01-72,  2 Bayfront Avenue, 018972","phone":"Tel : 6688 7431","chain":"LiHO","location":{"type":"Point","coordinates":[103.857629111139,1.28332249857386]}},{"title":"LiHO @ *SCAPE","address":"*SCAPE\n                                             \n                                                                                        #02-10,  2 Orchard Link, 237978","phone":"Tel : 6509 6282","chain":"LiHO","location":{"type":"Point","coordinates":[103.835700840357,1.30086543586584]}},{"title":"LiHO @ Greenwich V","address":"Greenwich V\n                                             \n                                                                                        #01-20,  1 Seletar Road, 807011","phone":"Tel : 6483 1487","chain":"LiHO","location":{"type":"Point","coordinates":[103.869423629864,1.38760330190633]}},{"title":"LiHO @ Changi City Point","address":"Changi City Point\n                                             \n                                                                                        #B1-41,  5 Changi Business Park Central 1, 486038","phone":"Tel : 6604 8489","chain":"LiHO","location":{"type":"Point","coordinates":[103.962792843921,1.33411313029445]}},{"title":"LiHO @ Asia Square Tower 2","address":"Asia Square Tower 2\n                                             \n                                                                                        #02-08,  12 Marina View, 018961","phone":"Tel : 6844 9928","chain":"LiHO","location":{"type":"Point","coordinates":[103.850795180871,1.27830729633252]}},{"title":"LiHO @ JEM","address":"Jurong East Mall (JEM)\n                                             \n                                                                                        #B1-30,  50 Jurong Gateway Road, 608549","phone":"Tel : 6734 8068","chain":"LiHO","location":{"type":"Point","coordinates":[103.743170428258,1.33320021829132]}},{"title":"LiHO @ Paya Lebar Square","address":"Paya Lebar Square\n                                             \n                                                                                        #01-50,  60 Paya Lebar Road, 409051","phone":"Tel : 6702 2110","chain":"LiHO","location":{"type":"Point","coordinates":[103.892550598424,1.31867575623015]}},{"title":"LiHO @ The Star Vista","address":"The Star Vista\n                                             \n                                                                                        #01-40,  1 Vista Exchange Green, 138617","phone":"Tel : 6694 4033","chain":"LiHO","location":{"type":"Point","coordinates":[103.788506619352,1.30688972960252]}},{"title":"LiHO @ Zhongshan Mall Balestier","address":"Zhongshan Mall Balestier\n                                             \n                                                                                        #01-09,  20 Ah Hood Road, 329984","phone":"Tel : 6339 2825","chain":"LiHO","location":{"type":"Point","coordinates":[103.846554377679,1.32694504456951]}},{"title":"LiHO @ Bedok Mall","address":"Bedok Mall\n                                             \n                                                                                        #B2-K16,  311 New Upper Changi Road, 467360","phone":"Tel : 6702 4025","chain":"LiHO","location":{"type":"Point","coordinates":[103.92940545649,1.32466897396909]}},{"title":"LiHO @ Admiralty Place","address":"HDB Admiralty Place\n                                             \n                                                                                        #01-15,  677 Woodlands Avenue 6, 730677","phone":"Tel : 6367 1238","chain":"LiHO","location":{"type":"Point","coordinates":[103.801706470491,1.43938615380542]}},{"title":"LiHO @ Fairprice Hub","address":"Fairprice Hub\n                                             \n                                                                                        #02-31 ,  1 Joo Koon Circle, 629117","phone":null,"chain":"LiHO","location":{"type":"Point","coordinates":[103.678392265337,1.32539180665075]}},{"title":"LiHO @ One Km","address":"Kinex\n                                             \n                                                                                        #B1-K5 ,  11 Tanjong Katong Road, 437157","phone":null,"chain":"LiHO","location":{"type":"Point","coordinates":[103.894480526031,1.31469213499495]}},{"title":"LiHO @ Waterway Point","address":"Waterway Point (Shopping Centre)\n                                             \n                                                                                        #B2-K10,  83 Punggol Central, 828761","phone":null,"chain":"LiHO","location":{"type":"Point","coordinates":[103.902150850842,1.40638890775119]}},{"title":"LiHO @ Paragon","address":"Paragon Shopping Centre\n                                             \n                                                                                        #B1-39/40,  290 Orchard Road, 238859","phone":"Tel : 6235 7511","chain":"LiHO","location":{"type":"Point","coordinates":[103.83526664484,1.30371084737898]}},{"title":"LiHO @ Suntec City Mall","address":"Suntec City Mall\n                                             \n                                                                                        #03-379,  3 Temasek Boulevard, 038983","phone":"Tel : 6836 1348","chain":"LiHO","location":{"type":"Point","coordinates":[103.857675494346,1.29487905002429]}},{"title":"LiHO @ 18 Tai Seng","address":"18 Tai Seng\n                                             \n                                                                                        #B1-11,  18 Tai Seng Street, 539775","phone":null,"chain":"LiHO","location":{"type":"Point","coordinates":[103.888762709582,1.33653868091668]}},{"title":"LiHO @ Resorts World Sentosa","address":"Resorts World at Sentosa\n                                             \n                                                                                        #01-83 ,  8 Sentosa Gateway, 098269","phone":"Tel : 6683 2335","chain":"LiHO","location":{"type":"Point","coordinates":[103.82046852826,1.25531954546872]}}],"Tiger Sugar":[{"title":"Capitol Piazza","address":"13 Stamford Road #B2-32 Singapore 178905","phone":"","location":{"type":"Point","coordinates":[103.851293463737,1.29306335877347]},"openingHours":"","chain":"Tiger Sugar"},{"title":"Chinatown Point","address":"133, New Bridge Road, #B1-42,Singapore 059413","phone":"","location":{"type":"Point","coordinates":[103.845015574621,1.28533894878838]},"openingHours":"","chain":"Tiger Sugar"},{"title":"Paragon Shopping Mall","address":"290 Orchard Road #B1-39/40 Paragon Singapore 238859","phone":"","location":{"type":"Point","coordinates":[103.83526664484,1.30371084737898]},"openingHours":"","chain":"Tiger Sugar"},{"title":"Jurong Point","address":"Jurong Point, #03-40/41, 1 Jurong West Central 2, Singapore, 648886","phone":"","location":{"type":"Point","coordinates":[103.706685012926,1.3394520043632]},"openingHours":"","chain":"Tiger Sugar"},{"title":"Northpoint City","address":"#01-153 Of Northpoint City At NO.1 Northpoint Drive Singapore 768019","phone":"","location":{"type":"Point","coordinates":[103.836092100712,1.42803585211784]},"openingHours":"","chain":"Tiger Sugar"},{"title":"Holland Village","address":"NO. 3 Lorong Liput B1-06 Holland Piazza Singapore 277725.","phone":"","location":{"type":"Point","coordinates":[103.795246166084,1.31064349551562]},"openingHours":"","chain":"Tiger Sugar"},{"title":"Bedok mall","address":"#B1-30A Bedok Mall,311 , New Upper Changi Road,Singapore 467360","phone":"","location":{"type":"Point","coordinates":[103.92940545649,1.32466897396909]},"openingHours":"","chain":"Tiger Sugar"},{"title":"Nex Serangoon","address":"#B1-30A Bedok Mall,311 , New Upper Changi Road,Singapore 467360","phone":"","location":{"type":"Point","coordinates":[103.92940545649,1.32466897396909]},"openingHours":"","chain":"Tiger Sugar"},{"title":"Bishan","address":"Blk 510 Bishan St 13 #01-03 Singapore 570510","phone":"","location":{"type":"Point","coordinates":[103.849691980373,1.34888843900173]},"openingHours":"","chain":"Tiger Sugar"}],"Each-A-Cup":[{"title":"Each-A-Cup (ION Orchard)","address":"2 Orchard Turn, #B4-69, Singapore 238801","phone":"Tel: 91829307","chain":"Each-A-Cup","location":{"type":"Point","coordinates":[103.831888294023,1.30404253406976]}},{"title":"Each-A-Cup (Plaza Singapura)","address":"68 Orchard Road, #B2-48, Singapore 238839","phone":"Tel: 92380368","chain":"Each-A-Cup","location":{"type":"Point","coordinates":[103.845067272666,1.30082071769235]}},{"title":"Each-A-Cup (Holland Village MRT)","address":"200 Holland Ave, #B1-12, Singapore 278995","phone":"Tel: 92380368","chain":"Each-A-Cup","location":{"type":"Point","coordinates":[103.796399122951,1.31224029686342]}},{"title":"Each-A-Cup (The Centrepoint)","address":"176 Orchard Rd, #01-K5, The Centrepoint, Singapore 238843","phone":"Tel: 91829307","chain":"Each-A-Cup","location":{"type":"Point","coordinates":[103.840054426935,1.30151446722773]}},{"title":"Each-A-Cup (306 Ubi Avenue 1)","address":"Blk 306 Ubi Avenue 1, #01-195, Singapore 400306","phone":"Tel: 92380368","chain":"Each-A-Cup","location":{"type":"Point","coordinates":[103.901930369733,1.32987117232209]}},{"title":"Each-A-Cup (Bukit Timah Plaza)","address":"1 Jalan Anak Bukit, #K1-CS1, Bukit Timah Plaza 588996","phone":"Tel: 98163863","chain":"Each-A-Cup","location":{"type":"Point","coordinates":[103.778560467143,1.33865677622928]}},{"title":"Each-A-Cup (109 Toa Payoh Lorong 1)","address":"109 Toa Payoh Lorong 1 (Braddell MRT Exit A), 310109","phone":"Tel: 66776145","chain":"Each-A-Cup","location":{"type":"Point","coordinates":[103.846202460812,1.34123727120826]}},{"title":"Each-A-Cup (177 Toa Payoh Central)","address":"177 Toa Payoh Central\n#01-154\nSingapore 310177","phone":"Tel: 86877685","chain":"Each-A-Cup","location":{"type":"Point","coordinates":[103.848844742805,1.3339024585093]}},{"title":"Each-A-Cup (146 Bukit Merah)","address":"146 Jalan Bukit Merah \n#01-1080\nSingapore 160146","phone":"Tel: 98163863","chain":"Each-A-Cup","location":{"type":"Point","coordinates":[103.830811459909,1.27784876576774]}},{"title":"Each-A-Cup (477 Tampines St 43)","address":"477 Tampines Street 43\n#01-174\nSingapore 520477","phone":"Tel: 9665 6596","chain":"Each-A-Cup","location":{"type":"Point","coordinates":[103.952892124796,1.36092155092893]}},{"title":"Each-A-Cup (Telok Blangah)","address":"Blk 78A Telok Blangah St 32, #01-10, Singapore 101078","phone":"Tel: 91829307","chain":"Each-A-Cup","location":{"type":"Point","coordinates":[103.808980553946,1.27338751489362]}},{"title":"Each-A-Cup (Tanjong Pagar Plaza)","address":"Tanjong Pagar Plaza #01-15 Blk 1 S082001","phone":"Tel: 98163863","chain":"Each-A-Cup","location":{"type":"Point","coordinates":[103.84295049169,1.2756261981348]}},{"title":"Each-A-Cup (Hong Lim)","address":"531 Upper Cross Street #02-64 Hong Lim","phone":"Tel: 98163863","chain":"Each-A-Cup","location":null},{"title":"Each-A-Cup (Marsiling)","address":"Blk 302 Woodlands St 31, #01-287, Singapore 730302","phone":"Tel: 66527683","chain":"Each-A-Cup","location":{"type":"Point","coordinates":[103.774428425787,1.43151114760042]}},{"title":"Each-A-Cup (Wisteria Mall)","address":"Wisteria Mall - 598 Yishun Ring Road, #01-22, Singapore 768698","phone":"Tel: 98393264","chain":"Each-A-Cup","location":{"type":"Point","coordinates":[103.841236456898,1.41799926284039]}},{"title":"Each-A-Cup (Causeway Point)","address":"1 Woodlands Square, #B1-K19, Singapore","phone":"Tel: 91829307","chain":"Each-A-Cup","location":null},{"title":"Each-A-Cup (417 Yishun Ave 11)","address":"Blk 417 Yishun Mall Street 11, #01-347, Singapore 760417","phone":"Tel: 98163863","chain":"Each-A-Cup","location":{"type":"Point","coordinates":[103.846329063065,1.4243850673899]}},{"title":"Each-A-Cup (POIZ Centre)","address":"51 Upper Serangoon Road, #01-10, The POIZ Centre 347697","phone":"Tel: 92380368","chain":"Each-A-Cup","location":{"type":"Point","coordinates":[103.868076452861,1.33130351440716]}},{"title":"Each-A-Cup (106 Yishun Ring Road @ Chong Pang)","address":"Blk 106 Yishun Ring Road, #01-151, 760106","phone":"Tel: 90148219","chain":"Each-A-Cup","location":{"type":"Point","coordinates":[103.827452004212,1.43147861432349]}},{"title":"Each-A-Cup (Jalan Kayu)","address":"254 Jalan Kayu, Singapore 799487 (Beside Thohirah)","phone":"Tel: 98202801","chain":"Each-A-Cup","location":{"type":"Point","coordinates":[103.873301176304,1.398188561554]}},{"title":"Each-A-Cup (Serangoon)","address":"153 Serangoon North Avenue 1\n#01-484\nSingapore 550153","phone":"Tel: 92380368","chain":"Each-A-Cup","location":{"type":"Point","coordinates":[103.872312298412,1.36995099685808]}},{"title":"Each-A-Cup (Woodlands South MRT)","address":"130 Woodlands Avenue 1#B1-02 Woodlands South MRT 739070","phone":"Tel: 98163863","chain":"Each-A-Cup","location":null},{"title":"Each-A-Cup (681 Hougang)","address":"681 Hougang Avenue 8\n#01-845\nSingapore 530681","phone":"Tel: 92212428","chain":"Each-A-Cup","location":{"type":"Point","coordinates":[103.88567915953,1.37297840284804]}},{"title":"Each-A-Cup (448 Ang Mo Kio)","address":"448 Ang Mo Kio Avenue 10\n#01-1707\nSingapore 560448","phone":"Tel: 97689119","chain":"Each-A-Cup","location":{"type":"Point","coordinates":[103.856396604517,1.3674419012314]}},{"title":"Each-A-Cup (106 Hougang Ave 1)","address":"106 Hougang Ave 1\n#01-1229\nSingapore 530106","phone":"Tel: 91091537","chain":"Each-A-Cup","location":{"type":"Point","coordinates":[103.890680792553,1.3537029714401]}},{"title":"Each-A-Cup (Punggol Drive)","address":"621 Punggol Drive","phone":"Tel: 92380368","chain":"Each-A-Cup","location":null},{"title":"Each-A-Cup (Senja Cashew CC)","address":"101 Bukit Panjang Road, #01-03, Singapore 679910","phone":"Tel: 91829307","chain":"Each-A-Cup","location":{"type":"Point","coordinates":[103.764659577604,1.38158679881085]}},{"title":"Each-A-Cup (ITE College West)","address":"1 Choa Chu Kang Grove, #05-01, Singapore 688236","phone":"Tel: 97689119","chain":"Each-A-Cup","location":{"type":"Point","coordinates":[103.752219691736,1.37505366356257]}},{"title":"Each-A-Cup (503 Jurong West Ave 1)","address":"503 Jurong West Avenue 1\n#01-831\nSingapore 640503","phone":"Tel: 92380368","chain":"Each-A-Cup","location":{"type":"Point","coordinates":[103.71770480961,1.34995541462242]}},{"title":"Each-A-Cup (Nanyang Technological University)","address":"50 Nanyang Ave, NS3-01-21, Singapore 639798","phone":"Tel: 91829307","chain":"Each-A-Cup","location":{"type":"Point","coordinates":[103.680152218583,1.34421841586272]}},{"title":"Each-A-Cup (Bukit Panjang Integrated Transport Hub)","address":"Bukit Panjang Integrated Transport Hub – 15 Petir Road, #01-61","phone":"Tel: 91829307","chain":"Each-A-Cup","location":null},{"title":"Each-A-Cup (Dover MRT)","address":"200 Commonwealth Ave West, #02-02, Singapore 138677","phone":"Tel: 88743412","chain":"Each-A-Cup","location":{"type":"Point","coordinates":[103.778656381761,1.31139153717332]}},{"title":"Each-A-Cup (West Mall)","address":"1 Bukit Batok Central Link, #01-07, Singapore 658713","phone":"Tel: 91829307","chain":"Each-A-Cup","location":{"type":"Point","coordinates":[103.749021976618,1.35018916560505]}},{"title":"Each-A-Cup (Ng Teng Fong Hospital)","address":"1, Jurong East St 21, #02-27 Tower A, Singapore 609606","phone":"Tel: 98476479","chain":"Each-A-Cup","location":{"type":"Point","coordinates":[103.746634963937,1.33260943666141]}},{"title":"Each-A-Cup (SIT @ NP Building)","address":"Ngee Ann Polytechnic, 537 Clementi Road, Singapore 599493","phone":"Tel: 91829307","chain":"Each-A-Cup","location":{"type":"Point","coordinates":[103.774389763468,1.33413260662247]}},{"title":"Each-A-Cup (Timbre+)","address":"73A Ayer Rajah Crescent\nJTC Launchpad\nSingapore 139957","phone":"Tel: 91829307","chain":"Each-A-Cup","location":{"type":"Point","coordinates":[103.787526314396,1.29741124785598]}},{"title":"Each-A-Cup (Bukit Batok)","address":"Blk 153 Bukit Batok St 11 #01-284 S(650153)","phone":"Tel: 98163863","chain":"Each-A-Cup","location":{"type":"Point","coordinates":[103.744276460895,1.34747947805081]}},{"title":"Each-A-Cup (Rivervale Mall)","address":"11 Rivervale Crescent, #01-K7, Singapore 545082","phone":"Tel: 92380368","chain":"Each-A-Cup","location":{"type":"Point","coordinates":[103.904483668323,1.39250410994833]}},{"title":"Each-A-Cup (E!Avenue @ Downtown East)","address":"1, Pasir Ris Close, #02-K2, Singapore 519599","phone":"Tel: 90099040","chain":"Each-A-Cup","location":{"type":"Point","coordinates":[103.955013328302,1.37918445128046]}},{"title":"Each-A-Cup (443 Pasir Ris Drive 6)","address":"443 Pasir Ris Drive 6, #01-14, Singapore 510443","phone":"Tel: 98163863","chain":"Each-A-Cup","location":{"type":"Point","coordinates":[103.957395750219,1.36940860628198]}},{"title":"Each-A-Cup (Kallang Leisure Park)","address":"5 Stadium Walk, #01-30, Singapore 397693","phone":"Tel: 91829307","chain":"Each-A-Cup","location":{"type":"Point","coordinates":[103.876449175952,1.30233745290722]}},{"title":"Each-A-Cup (Bedok Point)","address":"799 New Upper Changi Road, #02-24 Bedok Point","phone":"Tel: 91829307","chain":"Each-A-Cup","location":null},{"title":"Each-A-Cup (12 Haig Road)","address":"Blk 12 Haig Road, #01-331, Singapore 430012","phone":"Tel: 98539590","chain":"Each-A-Cup","location":{"type":"Point","coordinates":[103.896129520656,1.31561468089698]}},{"title":"Each-A-Cup (802 Tampines Ave 4)","address":"802 Tampines Ave 4, #01-19B, Tampines Polyview","phone":"Tel: 96681334","chain":"Each-A-Cup","location":null},{"title":"Each-A-Cup (89 Bedok North Street 4)","address":"89 Bedok North Street 4, #01-81, Singapore, 460089","phone":"Tel: 98163863","chain":"Each-A-Cup","location":{"type":"Point","coordinates":[103.938051284737,1.33233468349262]}},{"title":"Each-A-Cup (201E Tampines Street 23)","address":"Blk 201E Tampines St 23, #01-102, Singapore 527201","phone":"Tel: 98163863","chain":"Each-A-Cup","location":{"type":"Point","coordinates":[103.953858335355,1.35292162536007]}},{"title":"Each-A-Cup (95 Aljunied Crescent)","address":"95 Aljunied Crescent, #01-519, Singapore 380095","phone":"Tel: 86619239","chain":"Each-A-Cup","location":{"type":"Point","coordinates":[103.886195689242,1.32170329030889]}},{"title":"Each-A-Cup (539 Bedok North Street 3)","address":"539 Bedok North Street 3, #01-611, Singapore 460539","phone":"Tel: 92380368","chain":"Each-A-Cup","location":{"type":"Point","coordinates":[103.925307290709,1.33131386579703]}},{"title":"Each-A-Cup (208 Upper Changi)","address":"Blk 208 Upper Changi Road, #01-697, Singapore, 460208","phone":"Tel: 98163863","chain":"Each-A-Cup","location":{"type":"Point","coordinates":[103.931074627428,1.32569973464369]}},{"title":"Each-A-Cup (West Plaza)","address":"735 Pasir Ris Street 72\nWest Plaza\nSingapore 510735","phone":"Tel: 98393264","chain":"Each-A-Cup","location":{"type":"Point","coordinates":[103.936630061462,1.37978376857558]}},{"title":"Each-A-Cup (Bedok Reservoir)","address":"Blk 632 Bedok Reservoir Road, #01-874, Singapore 470632","phone":"Tel: 90099040","chain":"Each-A-Cup","location":{"type":"Point","coordinates":[103.914145075793,1.33205094618817]}},{"title":"Each-A-Cup (New Upper Changi Road)","address":"Blk 59 New Upper Changi Road #01-1254, S461059","phone":"Tel: +65 96681334","chain":"Each-A-Cup","location":{"type":"Point","coordinates":[103.940695612461,1.32405898618809]}}]}